NORAD_CAT_ID,OBJECT_NAME,OBJECT_TYPE,EPOCH,MEAN_MOTION,ECCENTRICITY,INCLINATION,RA_OF_ASC_NODE,ARG_OF_PERICENTER,MEAN_ANOMALY,BSTAR,MEAN_MOTION_DOT,MEAN_MOTION_DDOT,TLE_LINE0,TLE_LINE1,TLE_LINE2,SEMIMAJOR_AXIS,PERIOD,APOGEE,PERIGEE,DECAYED
53853.0,STARLINK-4794,PAYLOAD,2022-12-20 08:00:01,15.07184826,0.0001165,53.2149,170.0406,84.6778,113.3144,0.0024982,0.00037928,0.0,0 STARLINK-4794,1 53853U 22114AM  22354.33334491  .00037928  00000-0  24982-2 0  9996,2 53853  53.2149 170.0406 0001165  84.6778 113.3144 15.07184826 14993,6922.944,95.542,545.616,544.003,0.0
53853.0,STARLINK-4794,PAYLOAD,2022-12-20 14:00:01,15.07222472,0.0001252,53.2154,168.9215,85.1171,30.0834,-0.0012365,-0.00019064,0.0,0 STARLINK-4794,1 53853U 22114AM  22354.58334491 -.00019064  00000-0 -12365-2 0  9998,2 53853  53.2154 168.9215 0001252  85.1171  30.0834 15.07222472  1305,6922.829000000002,95.54,545.561,543.827,0.0
53853.0,STARLINK-4794,PAYLOAD,2022-12-21 00:00:00,15.07190426,0.000124,53.2157,167.0569,76.1474,141.1063,0.00077761,0.00011568,0.0,0 STARLINK-4794,1 53853U 22114AM  22355.00001157  .00011568  00000-0  77761-3 0  9997,2 53853  53.2157 167.0569 0001240  76.1474 141.1063 15.07190426 15095,6922.927,95.542,545.651,543.934,0.0
53853.0,STARLINK-4794,PAYLOAD,2022-12-21 14:00:01,15.07218358,0.0001246,53.2163,164.4436,86.5866,57.49800000000001,-0.0017043,-0.0002614,0.0,0 STARLINK-4794,1 53853U 22114AM  22355.58334491 -.00026140  00000-0 -17043-2 0  9990,2 53853  53.2163 164.4436 0001246  86.5866  57.4980 15.07218358  1303,6922.842,95.54,545.569,543.844,0.0
53853.0,STARLINK-4794,PAYLOAD,2022-12-21 22:54:45,15.07208073,0.0001062,53.2181,162.7815,75.878,284.2329,-5.764e-05,-1.161e-05,0.0,0 STARLINK-4794,1 53853U 22114AM  22355.95469396 -.00001161  00000-0 -57640-4 0  9999,2 53853  53.2181 162.7815 0001062  75.8780 284.2329 15.07208073 15245,6922.873000000001,95.541,545.4730000000002,544.003,0.0
53853.0,STARLINK-4794,PAYLOAD,2022-12-22 21:11:35,15.07211156,0.0001186,53.2184,158.6243,81.6002,278.5124,5.4379e-05,5.45e-06,0.0,0 STARLINK-4794,1 53853U 22114AM  22356.88305452  .00000545  00000-0  54379-4 0  9993,2 53853  53.2184 158.6243 0001186  81.6002 278.5124 15.07211156 15926,6922.864000000001,95.541,545.55,543.908,0.0
53853.0,STARLINK-4794,PAYLOAD,2022-12-23 03:33:33,15.07212472,0.0001167,53.2185,157.4365,80.2551,279.8573,9.4923e-05,1.162e-05,0.0,0 STARLINK-4794,1 53853U 22114AM  22357.14829890  .00001162  00000-0  94923-4 0  9995,2 53853  53.2185 157.4365 0001167  80.2551 279.8573 15.07212472 15421,6922.86,95.541,545.5319999999998,543.9169999999998,0.0
53853.0,STARLINK-4794,PAYLOAD,2022-12-23 17:52:58,15.07197475,0.0001256,53.2194,154.7646,83.5115,276.60200000000003,-2.1169e-05,-6.05e-06,0.0,0 STARLINK-4794,1 53853U 22114AM  22357.74511971 -.00000605  00000-0 -21169-4 0  9994,2 53853  53.2194 154.7646 0001256  83.5115 276.6020 15.07197475 16051,6922.905,95.542,545.64,543.901,0.0
53853.0,STARLINK-4794,PAYLOAD,2022-12-23 21:03:56,15.07202426,0.0001279,53.2187,154.1711,82.3609,277.7527,2.595e-05,1.12e-06,0.0,0 STARLINK-4794,1 53853U 22114AM  22357.87773969  .00000112  00000-0  25950-4 0  9998,2 53853  53.2187 154.1711 0001279  82.3609 277.7527 15.07202426 15539,6922.89,95.541,545.641,543.87,0.0
53853.0,STARLINK-4794,PAYLOAD,2022-12-24 09:47:50,15.07209324,0.0001213,53.2184,151.7947,82.3981,277.7148,4.2484e-05,3.64e-06,0.0,0 STARLINK-4794,1 53853U 22114AM  22358.40822898  .00000364  00000-0  42484-4 0  9994,2 53853  53.2184 151.7947 0001213  82.3981 277.7148 15.07209324 15613,6922.869000000002,95.541,545.5740000000002,543.894,0.0
53853.0,STARLINK-4794,PAYLOAD,2022-12-24 19:20:46,15.07215425,0.0001229,53.2183,150.0135,81.7068,278.4062,5.6865e-05,5.83e-06,0.0,0 STARLINK-4794,1 53853U 22114AM  22358.80609441  .00000583  00000-0  56865-4 0  9996,2 53853  53.2183 150.0135 0001229  81.7068 278.4062 15.07215425 16218,6922.851,95.54,545.566,543.865,0.0
53853.0,STARLINK-4794,PAYLOAD,2022-12-25 03:18:13,15.072164,0.0001225,53.2183,148.5287,79.9064,280.2066,5.4588e-05,5.48e-06,0.0,0 STARLINK-4794,1 53853U 22114AM  22359.13765114  .00000548  00000-0  54588-4 0  9994,2 53853  53.2183 148.5287 0001225  79.9064 280.2066 15.07216400 15723,6922.848000000001,95.54,545.561,543.864,0.0
53853.0,STARLINK-4794,PAYLOAD,2022-12-25 16:02:08,15.0720135,0.0001318,53.2185,146.1534,78.9753,281.1386,3.8704e-05,3.06e-06,0.0,0 STARLINK-4794,1 53853U 22114AM  22359.66815511  .00000306  00000-0  38704-4 0  9993,2 53853  53.2185 146.1534 0001318  78.9753 281.1386 15.07201350 15803,6922.894,95.541,545.6709999999998,543.846,0.0
53853.0,STARLINK-4794,PAYLOAD,2022-12-26 09:32:31,15.07206399,0.0001399,53.2172,142.8867,80.9839,279.1311,-3.7437e-05,-8.53e-06,0.0,0 STARLINK-4794,1 53853U 22114AM  22360.39758453 -.00000853  00000-0 -37437-4 0  9997,2 53853  53.2172 142.8867 0001399  80.9839 279.1311 15.07206399 16453,6922.878000000002,95.541,545.712,543.775,0.0
53853.0,STARLINK-4794,PAYLOAD,2022-12-26 19:05:27,15.07206255,0.0001419999999999,53.2174,141.1051,81.5072,278.6081,-3.7532e-05,-8.55e-06,0.0,0 STARLINK-4794,1 53853U 22114AM  22360.79545539 -.00000855  00000-0 -37532-4 0  9998,2 53853  53.2174 141.1051 0001420  81.5072 278.6081 15.07206255 15978,6922.879,95.541,545.727,543.761,0.0
53853.0,STARLINK-4794,PAYLOAD,2022-12-27 03:02:53,15.07214058,0.0001317,53.2188,139.6202,83.5942,276.5199,3.5579e-07,-2.78e-06,0.0,0 STARLINK-4794,1 53853U 22114AM  22361.12700689 -.00000278  00000-0  35579-6 0  9994,2 53853  53.2188 139.6202 0001317  83.5942 276.5199 15.07214058 16020,6922.855,95.541,545.631,543.808,0.0
53853.0,STARLINK-4794,PAYLOAD,2022-12-27 09:24:50,15.07213415,0.0001434,53.2187,138.4324,84.1623,275.9532,1.4982e-05,-5.5e-07,0.0,0 STARLINK-4794,1 53853U 22114AM  22361.39225340 -.00000055  00000-0  14982-4 0  9995,2 53853  53.2187 138.4324 0001434  84.1623 275.9532 15.07213415 16608,6922.857,95.541,545.714,543.729,0.0
53853.0,STARLINK-4794,PAYLOAD,2022-12-27 18:57:46,15.07215633,0.0001329,53.2188,136.6511,83.4097,276.7046,6.9736e-05,7.79e-06,0.0,0 STARLINK-4794,1 53853U 22114AM  22361.79011919  .00000779  00000-0  69736-4 0  9993,2 53853  53.2188 136.6511 0001329  83.4097 276.7046 15.07215633 16666,6922.85,95.54,545.635,543.795,0.0
53853.0,STARLINK-4794,PAYLOAD,2022-12-28 20:25:37,15.07197584,0.0001299,53.2178,131.9029,55.1466,304.9648,-7.1058e-05,-1.365e-05,0.0,0 STARLINK-4794,1 53853U 22114AM  22362.85112632 -.00001365  00000-0 -71058-4 0  9999,2 53853  53.2178 131.9029 0001299  55.1466 304.9648 15.07197584 16283,6922.905,95.542,545.669,543.871,0.0
53853.0,STARLINK-4794,PAYLOAD,2022-12-29 09:09:32,15.0720096,0.0001274999999999,53.218,129.5244,85.7713,274.3424,-0.0001351999999999,-2.34e-05,0.0,0 STARLINK-4794,1 53853U 22114AM  22363.38162373 -.00002340  00000-0 -13520-3 0  9998,2 53853  53.2180 129.5244 0001275  85.7713 274.3424 15.07200960 16900,6922.895,95.541,545.6419999999998,543.877,0.0
53853.0,STARLINK-4794,PAYLOAD,2022-12-30 12:12:51,15.07191372,0.0001157,53.2187,124.4779,62.7339,297.377,0.00013637,1.792e-05,0.0,0 STARLINK-4794,1 53853U 22114AM  22364.50893149  .00001792  00000-0  13637-3 0  9992,2 53853  53.2187 124.4779 0001157  62.7339 297.3770 15.07191372 16536,6922.924,95.542,545.59,543.988,0.0
53853.0,STARLINK-4794,PAYLOAD,2022-12-30 18:34:48,15.07202668,0.0001147999999999,53.2185,123.2902,72.8454,287.2663,0.0002423,3.407e-05,0.0,0 STARLINK-4794,1 53853U 22114AM  22364.77417191  .00003407  00000-0  24230-3 0  9996,2 53853  53.2185 123.2902 0001148  72.8454 287.2663 15.07202668 16573,6922.89,95.541,545.549,543.96,0.0
53853.0,STARLINK-4794,PAYLOAD,2022-12-31 00:56:45,15.07213092,0.0001142,53.2188,122.1025,69.3427,290.7687,0.00033976,4.893e-05,0.0,0 STARLINK-4794,1 53853U 22114AM  22365.03941124  .00004893  00000-0  33976-3 0  9991,2 53853  53.2188 122.1025 0001142  69.3427 290.7687 15.07213092 16618,6922.858,95.541,545.513,543.932,0.0
53853.0,STARLINK-4794,PAYLOAD,2022-12-31 16:51:38,15.07213106,0.0001298,53.2187,119.1337,71.2782,288.835,0.00036165,5.227e-05,0.0,0 STARLINK-4794,1 53853U 22114AM  22365.70253070  .00005227  00000-0  36165-3 0  9996,2 53853  53.2187 119.1337 0001298  71.2782 288.8350 15.07213106 17259,6922.858,95.541,545.621,543.8240000000002,0.0
53853.0,STARLINK-4794,PAYLOAD,2023-01-01 08:46:32,15.07205027,0.0001514,53.2178,116.1642,69.2022,290.9132,-0.00030039,-4.853e-05,0.0,0 STARLINK-4794,1 53853U 22114AM  23001.36565473 -.00004853  00000-0 -30039-3 0  9999,2 53853  53.2178 116.1642 0001514  69.2022 290.9132 15.07205027 16816,6922.882,95.541,545.795,543.6990000000002,0.0
53853.0,STARLINK-4794,PAYLOAD,2023-01-01 16:43:59,15.07198579,0.000137,53.2173,114.6796,67.0316,293.082,-0.00018099,-3.037e-05,0.0,0 STARLINK-4794,1 53853U 22114AM  23001.69721625 -.00003037  00000-0 -18099-3 0  9993,2 53853  53.2173 114.6796 0001370  67.0316 293.0820 15.07198579 17403,6922.901999999999,95.541,545.716,543.819,0.0
53853.0,STARLINK-4794,PAYLOAD,2023-01-02 00:41:19,15.07360123,0.0002346999999999,53.2174,113.1953,243.9531,116.1219,0.0038336,0.00058807,0.0,0 STARLINK-4794,1 53853U 22114AM  23002.02870255  .00058807  00000-0  38336-2 0  9993,2 53853  53.2174 113.1953 0002347 243.9531 116.1219 15.07360123 16910,6922.406999999997,95.531,545.8969999999998,542.648,0.0
53853.0,STARLINK-4794,PAYLOAD,2023-01-02 07:03:06,15.0783631,0.0001824,53.2192,112.0054,46.0165,314.0977,0.019269,0.00311575,0.0,0 STARLINK-4794,1 53853U 22114AM  23002.29382470  .00311575  00000-0  19269-1 0  9996,2 53853  53.2192 112.0054 0001824  46.0165 314.0977 15.07836310 16954,6920.95,95.501,544.077,541.553,0.0
53853.0,STARLINK-4794,PAYLOAD,2023-01-02 13:24:41,15.0829526,8.329999999999999e-05,53.2176,110.8177,76.9926,283.1159,0.025195,0.00419006,0.0,0 STARLINK-4794,1 53853U 22114AM  23002.55881701  .00419006  00000-0  25195-1 0  9999,2 53853  53.2176 110.8177 0000833  76.9926 283.1159 15.08295260 16990,6919.545999999999,95.472,541.987,540.835,0.0
